[{"OBJECT_NAME":"SMDC ONE 1.2","OBJECT_ID":"2012-048B","EPOCH":"2026-03-09T14:14:46.220928","MEAN_MOTION":15.19069434,"ECCENTRICITY":0.0110458,"INCLINATION":64.6579,"RA_OF_ASC_NODE":143.2061,"ARG_OF_PERICENTER":207.1808,"MEAN_ANOMALY":152.3511,"EPHEMERIS_TYPE":0,"CLASSIFICATION_TYPE":"U","NORAD_CAT_ID":38759,"ELEMENT_SET_NO":999,"REV_AT_EPOCH":10101,"BSTAR":0.00057078,"MEAN_MOTION_DOT":0.00013943,"MEAN_MOTION_DDOT":0},{"OBJECT_NAME":"STARLINK-30818","OBJECT_ID":"2023-170M","EPOCH":"2026-03-09T22:00:01.999584","MEAN_MOTION":15.26728011,"ECCENTRICITY":0.00017343,"INCLINATION":43.0009,"RA_OF_ASC_NODE":192.5311,"ARG_OF_PERICENTER":269.5729,"MEAN_ANOMALY":283.793,"EPHEMERIS_TYPE":0,"CLASSIFICATION_TYPE":"U","NORAD_CAT_ID":58217,"ELEMENT_SET_NO":999,"REV_AT_EPOCH":578,"BSTAR":0.00072234449,"MEAN_MOTION_DOT":0.00019159,"MEAN_MOTION_DDOT":0}]
